start=new Date('2022-12-24T00:00:00.000Z').valueOf();
sats=[{"BSTAR":"0.00048833000000","PERIOD":"95.592","TIME_SYSTEM":"UTC","CENTER_NAME":"EARTH","RA_OF_ASC_NODE":"294.6288","ARG_OF_PERICENTER":"52.5288","MEAN_MOTION_DDOT":"0.0000000000000","MEAN_ELEMENT_THEORY":"SGP4","REV_AT_EPOCH":"10327","INCLINATION":"53.0558","DECAY_DATE":null,"REF_FRAME":"TEME","EPHEMERIS_TYPE":"0","NORAD_CAT_ID":"47677","GP_ID":"221275205","ELEMENT_SET_NO":"999","MEAN_MOTION":"15.06399333","ECCENTRICITY":"0.00017990","APOAPSIS":"548.461","MEAN_ANOMALY":"307.5864","LAUNCH_DATE":"2021-02-16","OBJECT_NAME":"STARLINK-2090","SITE":"AFETR","SEMIMAJOR_AXIS":"6925.351","OBJECT_ID":"2021-012BK","CLASSIFICATION_TYPE":"U","TLE_LINE2":"2 47677  53.0558 294.6288 0001799  52.5288 307.5864 15.06399333103272","MEAN_MOTION_DOT":"0.00006999","TLE_LINE1":"1 47677U 21012BK  22357.31130498  .00006999  00000-0  48833-3 0  9997","RCS_SIZE":"LARGE","EPOCH":"2022-12-23T07:28:16.750272","COUNTRY_CODE":"US","OBJECT_TYPE":"PAYLOAD","PERIAPSIS":"545.970","FILE":"3720302"},{"EPHEMERIS_TYPE":"0","NORAD_CAT_ID":"47679","REF_FRAME":"TEME","INCLINATION":"53.0555","DECAY_DATE":null,"MEAN_MOTION":"15.06387962","ELEMENT_SET_NO":"999","APOAPSIS":"548.169","ECCENTRICITY":"0.00013270","GP_ID":"221281032","PERIOD":"95.593","TIME_SYSTEM":"UTC","CENTER_NAME":"EARTH","BSTAR":"0.00016967000000","MEAN_ELEMENT_THEORY":"SGP4","MEAN_MOTION_DDOT":"0.0000000000000","REV_AT_EPOCH":"10280","RA_OF_ASC_NODE":"293.6193","ARG_OF_PERICENTER":"76.0633","TLE_LINE2":"2 47679  53.0555 293.6193 0001327  76.0633 284.0503 15.06387962102809","MEAN_MOTION_DOT":"0.00002246","CLASSIFICATION_TYPE":"U","OBJECT_TYPE":"PAYLOAD","PERIAPSIS":"546.331","FILE":"3720385","TLE_LINE1":"1 47679U 21012BM  22357.53983519  .00002246  00000-0  16967-3 0  9997","COUNTRY_CODE":"US","EPOCH":"2022-12-23T12:57:21.760416","RCS_SIZE":"LARGE","OBJECT_NAME":"STARLINK-2095","LAUNCH_DATE":"2021-02-16","MEAN_ANOMALY":"284.0503","OBJECT_ID":"2021-012BM","SITE":"AFETR","SEMIMAJOR_AXIS":"6925.385"},{"REF_FRAME":"TEME","EPHEMERIS_TYPE":"0","NORAD_CAT_ID":"47722","DECAY_DATE":null,"INCLINATION":"53.0561","ECCENTRICITY":"0.00017960","APOAPSIS":"548.457","MEAN_MOTION":"15.06400084","ELEMENT_SET_NO":"999","GP_ID":"221281955","CENTER_NAME":"EARTH","TIME_SYSTEM":"UTC","PERIOD":"95.592","BSTAR":"0.00020553000000","REV_AT_EPOCH":"10063","MEAN_MOTION_DDOT":"0.0000000000000","MEAN_ELEMENT_THEORY":"SGP4","ARG_OF_PERICENTER":"52.6481","RA_OF_ASC_NODE":"58.9530","MEAN_MOTION_DOT":"0.00002781","TLE_LINE2":"2 47722  53.0561  58.9530 0001796  52.6481 307.4671 15.06400084100639","CLASSIFICATION_TYPE":"U","FILE":"3720425","OBJECT_TYPE":"PAYLOAD","PERIAPSIS":"545.970","EPOCH":"2022-12-23T12:23:36.528864","RCS_SIZE":"LARGE","COUNTRY_CODE":"US","TLE_LINE1":"1 47722U 21017A   22357.51639501  .00002781  00000-0  20553-3 0  9998","LAUNCH_DATE":"2021-03-04","OBJECT_NAME":"STARLINK-2068","MEAN_ANOMALY":"307.4671","OBJECT_ID":"2021-017A","SEMIMAJOR_AXIS":"6925.348","SITE":"AFETR"},{"FILE":"3720518","OBJECT_TYPE":"PAYLOAD","PERIAPSIS":"546.105","COUNTRY_CODE":"US","RCS_SIZE":"LARGE","EPOCH":"2022-12-23T17:21:27.104832","TLE_LINE1":"1 47723U 21017B   22357.72323038  .00002323  00000-0  17481-3 0  9995","MEAN_MOTION_DOT":"0.00002323","TLE_LINE2":"2 47723  53.0536 352.7952 0001635  54.3542 305.7599 15.06392337102222","CLASSIFICATION_TYPE":"U","OBJECT_ID":"2021-017B","SEMIMAJOR_AXIS":"6925.372","SITE":"AFETR","OBJECT_NAME":"STARLINK-2107","LAUNCH_DATE":"2021-03-04","MEAN_ANOMALY":"305.7599","APOAPSIS":"548.369","ECCENTRICITY":"0.00016350","ELEMENT_SET_NO":"999","MEAN_MOTION":"15.06392337","GP_ID":"221304584","EPHEMERIS_TYPE":"0","NORAD_CAT_ID":"47723","REF_FRAME":"TEME","DECAY_DATE":null,"INCLINATION":"53.0536","REV_AT_EPOCH":"10222","MEAN_ELEMENT_THEORY":"SGP4","MEAN_MOTION_DDOT":"0.0000000000000","ARG_OF_PERICENTER":"54.3542","RA_OF_ASC_NODE":"352.7952","CENTER_NAME":"EARTH","TIME_SYSTEM":"UTC","PERIOD":"95.593","BSTAR":"0.00017481000000"},{"REV_AT_EPOCH":"10215","MEAN_MOTION_DDOT":"0.0000000000000","MEAN_ELEMENT_THEORY":"SGP4","ARG_OF_PERICENTER":"32.3281","RA_OF_ASC_NODE":"353.8190","CENTER_NAME":"EARTH","TIME_SYSTEM":"UTC","PERIOD":"95.593","BSTAR":"0.00006010700000","ECCENTRICITY":"0.00023890","APOAPSIS":"548.915","MEAN_MOTION":"15.06384572","ELEMENT_SET_NO":"999","GP_ID":"221274211","REF_FRAME":"TEME","EPHEMERIS_TYPE":"0","NORAD_CAT_ID":"47724","DECAY_DATE":null,"INCLINATION":"53.0549","OBJECT_ID":"2021-017C","SEMIMAJOR_AXIS":"6925.396","SITE":"AFETR","LAUNCH_DATE":"2021-03-04","OBJECT_NAME":"STARLINK-2116","MEAN_ANOMALY":"327.7854","FILE":"3720302","OBJECT_TYPE":"PAYLOAD","PERIAPSIS":"545.606","EPOCH":"2022-12-23T11:52:22.783296","RCS_SIZE":"LARGE","COUNTRY_CODE":"US","TLE_LINE1":"1 47724U 21017C   22357.49470814  .00000613  00000-0  60107-4 0  9999","MEAN_MOTION_DOT":"0.00000613","TLE_LINE2":"2 47724  53.0549 353.8190 0002389  32.3281 327.7854 15.06384572102158","CLASSIFICATION_TYPE":"U"},{"REF_FRAME":"TEME","NORAD_CAT_ID":"47725","EPHEMERIS_TYPE":"0","INCLINATION":"53.0544","DECAY_DATE":null,"MEAN_MOTION":"15.06379259","ELEMENT_SET_NO":"999","ECCENTRICITY":"0.00019840","APOAPSIS":"548.651","GP_ID":"221306065","PERIOD":"95.593","CENTER_NAME":"EARTH","TIME_SYSTEM":"UTC","BSTAR":"0.00021928000000","MEAN_MOTION_DDOT":"0.0000000000000","MEAN_ELEMENT_THEORY":"SGP4","REV_AT_EPOCH":"10121","RA_OF_ASC_NODE":"63.0617","ARG_OF_PERICENTER":"42.6077","TLE_LINE2":"2 47725  53.0544  63.0617 0001984  42.6077 317.5066 15.06379259101219","MEAN_MOTION_DOT":"0.00002984","CLASSIFICATION_TYPE":"U","OBJECT_TYPE":"PAYLOAD","PERIAPSIS":"545.903","FILE":"3720518","TLE_LINE1":"1 47725U 21017D   22357.66149968  .00002984  00000-0  21928-3 0  9992","EPOCH":"2022-12-23T15:52:33.572352","RCS_SIZE":"LARGE","COUNTRY_CODE":"US","LAUNCH_DATE":"2021-03-04","OBJECT_NAME":"STARLINK-2125","MEAN_ANOMALY":"317.5066","OBJECT_ID":"2021-017D","SITE":"AFETR","SEMIMAJOR_AXIS":"6925.412"},{"GP_ID":"221304835","ECCENTRICITY":"0.00022470","APOAPSIS":"548.767","ELEMENT_SET_NO":"999","MEAN_MOTION":"15.06401017","DECAY_DATE":null,"INCLINATION":"53.0542","REF_FRAME":"TEME","EPHEMERIS_TYPE":"0","NORAD_CAT_ID":"47726","ARG_OF_PERICENTER":"41.4647","RA_OF_ASC_NODE":"62.8405","REV_AT_EPOCH":"10121","MEAN_MOTION_DDOT":"0.0000000000000","MEAN_ELEMENT_THEORY":"SGP4","BSTAR":"0.00042598000000","CENTER_NAME":"EARTH","TIME_SYSTEM":"UTC","PERIOD":"95.592","EPOCH":"2022-12-23T17:06:51.734592","RCS_SIZE":"MEDIUM","COUNTRY_CODE":"US","TLE_LINE1":"1 47726U 21017E   22357.71309878  .00006069  00000-0  42598-3 0  9991","FILE":"3720518","PERIAPSIS":"545.654","OBJECT_TYPE":"PAYLOAD","CLASSIFICATION_TYPE":"U","MEAN_MOTION_DOT":"0.00006069","TLE_LINE2":"2 47726  53.0542  62.8405 0002247  41.4647 318.6512 15.06401017101219","SEMIMAJOR_AXIS":"6925.345","SITE":"AFETR","OBJECT_ID":"2021-017E","MEAN_ANOMALY":"318.6512","LAUNCH_DATE":"2021-03-04","OBJECT_NAME":"STARLINK-2126"},{"ARG_OF_PERICENTER":"38.0570","RA_OF_ASC_NODE":"343.0561","REV_AT_EPOCH":"10236","MEAN_ELEMENT_THEORY":"SGP4","MEAN_MOTION_DDOT":"0.0000000000000","BSTAR":"0.00010692000000","CENTER_NAME":"EARTH","TIME_SYSTEM":"UTC","PERIOD":"95.593","GP_ID":"221305085","APOAPSIS":"548.911","ECCENTRICITY":"0.00023660","MEAN_MOTION":"15.06380853","ELEMENT_SET_NO":"999","DECAY_DATE":null,"INCLINATION":"53.0554","NORAD_CAT_ID":"47727","EPHEMERIS_TYPE":"0","REF_FRAME":"TEME","SITE":"AFETR","SEMIMAJOR_AXIS":"6925.407","OBJECT_ID":"2021-017F","MEAN_ANOMALY":"322.0586","OBJECT_NAME":"STARLINK-2129","LAUNCH_DATE":"2021-03-04","COUNTRY_CODE":"US","EPOCH":"2022-12-23T15:56:30.262560","RCS_SIZE":"LARGE","TLE_LINE1":"1 47727U 21017F   22357.66423915  .00001310  00000-0  10692-3 0  9999","FILE":"3720518","OBJECT_TYPE":"PAYLOAD","PERIAPSIS":"545.634","CLASSIFICATION_TYPE":"U","MEAN_MOTION_DOT":"0.00001310","TLE_LINE2":"2 47727  53.0554 343.0561 0002366  38.0570 322.0586 15.06380853102360"},{"RA_OF_ASC_NODE":"63.8352","ARG_OF_PERICENTER":"83.7350","MEAN_ELEMENT_THEORY":"SGP4","MEAN_MOTION_DDOT":"0.0000000000000","REV_AT_EPOCH":"10124","BSTAR":"0.00016081000000","PERIOD":"95.592","CENTER_NAME":"EARTH","TIME_SYSTEM":"UTC","GP_ID":"221274711","MEAN_MOTION":"15.06401855","ELEMENT_SET_NO":"999","APOAPSIS":"548.116","ECCENTRICITY":"0.00013110","INCLINATION":"53.0541","DECAY_DATE":null,"NORAD_CAT_ID":"47728","EPHEMERIS_TYPE":"0","REF_FRAME":"TEME","SEMIMAJOR_AXIS":"6925.343","SITE":"AFETR","OBJECT_ID":"2021-017G","MEAN_ANOMALY":"276.3789","OBJECT_NAME":"STARLINK-2131","LAUNCH_DATE":"2021-03-04","TLE_LINE1":"1 47728U 21017G   22357.48825939  .00002115  00000-0  16081-3 0  9994","COUNTRY_CODE":"US","RCS_SIZE":"LARGE","EPOCH":"2022-12-23T11:43:05.611296","OBJECT_TYPE":"PAYLOAD","PERIAPSIS":"546.300","FILE":"3720302","CLASSIFICATION_TYPE":"U","TLE_LINE2":"2 47728  53.0541  63.8352 0001311  83.7350 276.3789 15.06401855101242","MEAN_MOTION_DOT":"0.00002115"},{"REF_FRAME":"TEME","NORAD_CAT_ID":"47729","EPHEMERIS_TYPE":"0","DECAY_DATE":null,"INCLINATION":"53.0566","ECCENTRICITY":"0.00018890","APOAPSIS":"548.571","ELEMENT_SET_NO":"999","MEAN_MOTION":"15.06384070","GP_ID":"221248586","CENTER_NAME":"EARTH","TIME_SYSTEM":"UTC","PERIOD":"95.593","BSTAR":"0.00008701800000","REV_AT_EPOCH":"10133","MEAN_MOTION_DDOT":"0.0000000000000","MEAN_ELEMENT_THEORY":"SGP4","ARG_OF_PERICENTER":"45.3495","RA_OF_ASC_NODE":"9.2163","MEAN_MOTION_DOT":"0.00001014","TLE_LINE2":"2 47729  53.0566   9.2163 0001889  45.3495 314.7648 15.06384070101338","CLASSIFICATION_TYPE":"U","FILE":"3720132","OBJECT_TYPE":"PAYLOAD","PERIAPSIS":"545.954","EPOCH":"2022-12-23T10:49:22.855008","RCS_SIZE":"LARGE","COUNTRY_CODE":"US","TLE_LINE1":"1 47729U 21017H   22357.45095897  .00001014  00000-0  87018-4 0  9990","LAUNCH_DATE":"2021-03-04","OBJECT_NAME":"STARLINK-2132","MEAN_ANOMALY":"314.7648","OBJECT_ID":"2021-017H","SEMIMAJOR_AXIS":"6925.397","SITE":"AFETR"}];
